#aV2006 12  5  0  0   .00000000      96 DD+AD WGS84 FIT  NGA
## 1404 172800.00000000   900.00000000 54074  .0000000000000
+   30     1  2  3  4  5  6  7  8  9 10 11 12 13 14 16 17 18
+         19 20 21 22 23 24 25 26 27 28 29 30 31  0  0  0  0
+          0  0  0  0  0  0  0  0  0  0  0  0  0  0  0  0  0
+          0  0  0  0  0  0  0  0  0  0  0  0  0  0  0  0  0
+          0  0  0  0  0  0  0  0  0  0  0  0  0  0  0  0  0
++         0  0  0  0  0  0  0  0  0  0  0  0  0  0  0  0  0
++         0  0  0  0  0  0  0  0  0  0  0  0  0  0  0  0  0
++         0  0  0  0  0  0  0  0  0  0  0  0  0  0  0  0  0
++         0  0  0  0  0  0  0  0  0  0  0  0  0  0  0  0  0
++         0  0  0  0  0  0  0  0  0  0  0  0  0  0  0  0  0
%c cc cc ccc ccc cccc cccc cccc cccc ccccc ccccc ccccc ccccc
%c cc cc ccc ccc cccc cccc cccc cccc ccccc ccccc ccccc ccccc
%f  0.0000000  0.000000000  0.00000000000  0.000000000000000
%f  0.0000000  0.000000000  0.00000000000  0.000000000000000
%i    0    0    0    0      0      0      0      0         0
%i    0    0    0    0      0      0      0      0         0
/*      NGA, ST. LOUIS,MO.                                  
/*   EPHEMERIS COMPUTED FROM  3 DAYS OF DATA                
/* CCCCCCCCCCCCCCCCCCCCCCCCCCCCCCCCCCCCCCCCCCCCCCCCCCCCCCCCC
/* CCCCCCCCCCCCCCCCCCCCCCCCCCCCCCCCCCCCCCCCCCCCCCCCCCCCCCCCC
*  2006 12  5 18 45   .00000000                                                 
P  1  19749.284280  15010.513188   9791.612670     93.771606                    
V  1 -11792.487861  -3064.032660  29035.200479       .020554                    
P  2 -13348.547128 -18934.018353 -13444.336650     61.159735                    
V  2   -810.049348 -16754.207687  24599.025319       .035595                    
P  3  23157.502890  11403.030375  -7138.216293    444.764515                    
V  3  -9341.732743   1135.302358 -28973.771242       .235967                    
P  4  -5419.877141 -25755.062841  -1542.977230    343.446778                    
V  4   3166.545968  -2476.089412  31625.289093       .036650                    
P  5 -21635.177407  10955.920117  10423.061097    409.647335                    
V  5   7321.967399 -11986.813364  27354.317910       .227831                    
P  6 -15223.294661  10037.896525 -19142.410364    523.346406                    
V  6 -23131.314782  -9050.434927  13463.142780      -.166355                    
P  7  -2418.604171  15490.782162 -21061.163638    480.658580                    
V  7 -26713.278097  -7400.688139  -2409.779889      -.088039                    
P  8   2130.657630 -24989.208481  -8164.967872    -88.435312                    
V  8   3870.129363   9859.090024 -30057.703942      -.013894                    
P  9 -15222.260224   -607.751492  21207.032256     47.570977                    
V  9  -5802.510389 -27660.434564  -4594.253231       .015063                    
P 10 -15265.040874  -6116.589833 -21021.822874     93.936679                    
V 10  20116.168107 -17048.194041  -9381.773554       .005829                    
P 11  16288.573299  -3442.511651  20620.643219     -1.555060                    
V 11   8624.267840  25242.875689  -2303.129969       .016093                    
P 12 -21808.228160   5304.187778  14523.844037    -95.217373                    
V 12  12490.550528 -13286.149808  23681.411777       .128760                    
P 13  13024.546152  -9666.419801 -21111.490613    119.450396                    
V 13  24484.408336  10221.301043  10508.484566       .037194                    
P 14   5415.730807  16359.141834  20315.054063       .812158                    
V 14 -24149.858703  -8280.521711  13089.414734       .010428                    
P 16  11433.554528  10113.823695 -21662.773108     98.720390                    
V 16 -21176.596000  17829.373114  -2722.448240       .038803                    
P 17  -5334.793626 -16769.131249  19921.791336     87.337745                    
V 17  24148.652734   7559.409673  12714.725432      -.014235                    
P 18 -16074.950065  19495.658629   7761.961659   -253.258379                    
V 18  -9570.500061   3622.441583 -29729.030958      -.003286                    
P 19  25174.926179   7530.948369   4277.305104     41.567538                    
V 19   3773.271629   4648.872607 -31008.021886       .041507                    
P 20  22255.271077 -12312.636560   7497.401125    -21.791228                    
V 20  -5405.730645   8499.607517  29690.245187      -.000187                    
P 21  -6481.852769  21790.256595 -13174.464399     63.968124                    
V 21  -5579.834829 -16504.067116 -24932.321979       .013897                    
P 22  -5155.276573  19537.186245  17391.281519    153.914835                    
V 22 -18391.022515  11839.056764 -18948.410293       .022416                    
P 23  22337.310887  -2503.816956 -14381.688957    142.004104                    
V 23  16387.403128   7721.387403  24054.082034       .009511                    
P 24 -12816.264692 -17582.808811 -14853.735540     57.717593                    
V 24   -163.800022 -19458.648274  23160.561389       .029888                    
P 25  10965.599446  23221.937613  -6042.496295    406.015502                    
V 25   -674.067611   8740.000273  30511.931643      -.021251                    
P 26 -25416.222232  -8244.229444   2461.893263    -34.396092                    
V 26  -2821.874119  -2590.039186 -31841.406755      -.167873                    
P 27   6631.352541 -19530.691611 -15941.458886     81.569684                    
V 27   7332.094537  20365.393354 -21372.840069       .020190                    
P 28   8396.576955 -20319.059255  14947.477800     12.681173                    
V 28  15812.679046 -10031.171839 -23333.506405      -.008432                    
P 29 -24910.855854  -9610.287336  -1191.386649    242.484912                    
V 29   2233.318990   -999.968034 -32083.697444       .245288                    
P 30 -18981.413986  18471.797135  -1123.915319     18.533171                    
V 30  -3093.037763  -1787.544783  31431.985635       .012046                    
P 31   7942.236322  24857.549120  -4626.694196    -27.913881                    
V 31  -1657.350722   6541.420173  31045.625776       .081942                    
EOF
